CTC2_L_00673007-03
1 20578U 23141MT  26037.47799769  .00000000  00000+0  00000-0 0  9998
2 20578  50.0000 180.0000 0000000   0.0000 144.0000  1.91644752    17
CTC2_L_00673007-04
1 20579U 23641DS  26037.47799769  .00000000  00000+0  00000-0 0  9994
2 20579  50.0000 180.0000 0000000   0.0000 180.0000  1.91644752    18
CTC2_L_00673007-05
1 20580U 25282XT  26037.47799769  .00000000  00000+0  00000-0 0  9999
2 20580  50.0000 180.0000 0000000   0.0000 216.0000  1.91644752    10
CTC2_L_00673007-06
1 20581U 25767XF  26037.47799769  .00000000  00000+0  00000-0 0  9998
2 20581  50.0000 180.0000 0000000   0.0000 252.0000  1.91644752    11
CTC2_L_00673007-07
1 20582U 22526HY  26037.47799769  .00000000  00000+0  00000-0 0  9999
2 20582  50.0000 180.0000 0000000   0.0000 288.0000  1.91644752    11
CTC2_L_00673007-08
1 20583U 25945ET  26037.47799769  .00000000  00000+0  00000-0 0  9998
2 20583  50.0000 180.0000 0000000   0.0000 324.0000  1.91644752    13
CTC2_L_00673007-09
1 20584U 26765ND  26037.47799769  .00000000  00000+0  00000-0 0  9990
2 20584  50.0000 180.0000 0000000   0.0000   0.0000  1.91644752    15
CTC2_L_00673007-10
1 20585U 23667XO  26037.47799769  .00000000  00000+0  00000-0 0  9999
2 20585  50.0000 180.0000 0000000   0.0000  36.0000  1.91644752    15
CTC2_L_00673008-01
1 20586U 22435PJ  26037.47799769  .00000000  00000+0  00000-0 0  9992
2 20586  50.0000 210.0000 0000000   0.0000  84.0000  1.91644752    13
CTC2_L_00673008-02
1 20587U 24622YB  26037.47799769  .00000000  00000+0  00000-0 0  9993
2 20587  50.0000 210.0000 0000000   0.0000 120.0000  1.91644752    15
CTC2_L_00673008-03
1 20588U 25347AY  26037.47799769  .00000000  00000+0  00000-0 0  9999
2 20588  50.0000 210.0000 0000000   0.0000 156.0000  1.91644752    15
CTC2_L_00673008-04
1 20589U 23041UK  26037.47799769  .00000000  00000+0  00000-0 0  9999
2 20589  50.0000 210.0000 0000000   0.0000 192.0000  1.91644752    16
CTC2_L_00673008-05
1 20590U 22668BL  26037.47799769  .00000000  00000+0  00000-0 0  9995
2 20590  50.0000 210.0000 0000000   0.0000 228.0000  1.91644752    18
CTC2_L_00673008-06
1 20591U 24265XP  26037.47799769  .00000000  00000+0  00000-0 0  9991
2 20591  50.0000 210.0000 0000000   0.0000 264.0000  1.91644752    19
CTC2_L_00673008-07
1 20592U 26688OT  26037.47799769  .00000000  00000+0  00000-0 0  9993
2 20592  50.0000 210.0000 0000000   0.0000 300.0000  1.91644752    11
CTC2_L_00673008-08
1 20593U 22877SF  26037.47799769  .00000000  00000+0  00000-0 0  9990
2 20593  50.0000 210.0000 0000000   0.0000 336.0000  1.91644752    11
CTC2_L_00673008-09
1 20594U 22903WS  26037.47799769  .00000000  00000+0  00000-0 0  9991
2 20594  50.0000 210.0000 0000000   0.0000  12.0000  1.91644752    13
CTC2_L_00673008-10
1 20595U 26714GF  26037.47799769  .00000000  00000+0  00000-0 0  9996
2 20595  50.0000 210.0000 0000000   0.0000  48.0000  1.91644752    13
CTC2_L_00673009-01
1 20596U 25457IT  26037.47799769  .00000000  00000+0  00000-0 0  9990
2 20596  50.0000 240.0000 0000000   0.0000  96.0000  1.91644752    10
CTC2_L_00673009-02
1 20597U 25757AO  26037.47799769  .00000000  00000+0  00000-0 0  9994
2 20597  50.0000 240.0000 0000000   0.0000 132.0000  1.91644752    12
CTC2_L_00673009-03
1 20598U 24128ND  26037.47799769  .00000000  00000+0  00000-0 0  9996
2 20598  50.0000 240.0000 0000000   0.0000 168.0000  1.91644752    12
CTC2_L_00673009-04
1 20599U 22266MH  26037.47799769  .00000000  00000+0  00000-0 0  9998
2 20599  50.0000 240.0000 0000000   0.0000 204.0000  1.91644752    14
CTC2_L_00673009-05
1 20600U 24132EI  26037.47799769  .00000000  00000+0  00000-0 0  9995
2 20600  50.0000 240.0000 0000000   0.0000 240.0000  1.91644752    17
CTC2_L_00673009-06
1 20601U 25240ME  26037.47799769  .00000000  00000+0  00000-0 0  9997
2 20601  50.0000 240.0000 0000000   0.0000 276.0000  1.91644752    17
CTC2_L_00673009-07
1 20602U 25381GV  26037.47799769  .00000000  00000+0  00000-0 0  9994
2 20602  50.0000 240.0000 0000000   0.0000 312.0000  1.91644752    19
CTC2_L_00673009-08
1 20603U 23812FZ  26037.47799769  .00000000  00000+0  00000-0 0  9992
2 20603  50.0000 240.0000 0000000   0.0000 348.0000  1.91644752    19
CTC2_L_00673009-09
1 20604U 25482U   26037.47799769  .00000000  00000+0  00000-0 0  9998
2 20604  50.0000 240.0000 0000000   0.0000  24.0000  1.91644752    11
CTC2_L_00673009-10
1 20605U 22287JG  26037.47799769  .00000000  00000+0  00000-0 0  9999
2 20605  50.0000 240.0000 0000000   0.0000  60.0000  1.91644752    12
CTC2_L_00673010-01
1 20606U 23512EU  26037.47799769  .00000000  00000+0  00000-0 0  9992
2 20606  50.0000 270.0000 0000000   0.0000 108.0000  1.91644752    19
CTC2_L_00673010-02
1 20607U 23548LP  26037.47799769  .00000000  00000+0  00000-0 0  9992
2 20607  50.0000 270.0000 0000000   0.0000 144.0000  1.91644752    10
CTC2_L_00673010-03
1 20608U 26959JW  26037.47799769  .00000000  00000+0  00000-0 0  9992
2 20608  50.0000 270.0000 0000000   0.0000 180.0000  1.91644752    11
CTC2_L_00673010-04
1 20609U 25272SA  26037.47799769  .00000000  00000+0  00000-0 0  9990
2 20609  50.0000 270.0000 0000000   0.0000 216.0000  1.91644752    12
CTC2_L_00673010-05
1 20610U 25622IG  26037.47799769  .00000000  00000+0  00000-0 0  9991
2 20610  50.0000 270.0000 0000000   0.0000 252.0000  1.91644752    14
CTC2_L_00673010-06
1 20611U 24874EF  26037.47799769  .00000000  00000+0  00000-0 0  9990
2 20611  50.0000 270.0000 0000000   0.0000 288.0000  1.91644752    14
CTC2_L_00673010-07
1 20612U 26704OQ  26037.47799769  .00000000  00000+0  00000-0 0  9995
2 20612  50.0000 270.0000 0000000   0.0000 324.0000  1.91644752    16
CTC2_L_00673010-08
1 20613U 25944PN  26037.47799769  .00000000  00000+0  00000-0 0  9991
2 20613  50.0000 270.0000 0000000   0.0000   0.0000  1.91644752    18
CTC2_L_00673010-09
1 20614U 25222ET  26037.47799769  .00000000  00000+0  00000-0 0  9991
2 20614  50.0000 270.0000 0000000   0.0000  36.0000  1.91644752    18
CTC2_L_00673010-10
1 20615U 24396RD  26037.47799769  .00000000  00000+0  00000-0 0  9993
2 20615  50.0000 270.0000 0000000   0.0000  72.0000  1.91644752    19
CTC2_L_00673011-01
1 20616U 26509RK  26037.47799769  .00000000  00000+0  00000-0 0  9992
2 20616  50.0000 300.0000 0000000   0.0000 120.0000  1.91644752    18
CTC2_L_00673011-02
1 20617U 23400IX  26037.47799769  .00000000  00000+0  00000-0 0  9990
2 20617  50.0000 300.0000 0000000   0.0000 156.0000  1.91644752    18
CTC2_L_00673011-03
1 20618U 25059CL  26037.47799769  .00000000  00000+0  00000-0 0  9993
2 20618  50.0000 300.0000 0000000   0.0000 192.0000  1.91644752    19
CTC2_L_00673011-04
1 20619U 22162HL  26037.47799769  .00000000  00000+0  00000-0 0  9996
2 20619  50.0000 300.0000 0000000   0.0000 228.0000  1.91644752    10
CTC2_L_00673011-05
1 20620U 25236YB  26037.47799769  .00000000  00000+0  00000-0 0  9993
2 20620  50.0000 300.0000 0000000   0.0000 264.0000  1.91644752    12
CTC2_L_00673011-06
1 20621U 26706DN  26037.47799769  .00000000  00000+0  00000-0 0  9997
2 20621  50.0000 300.0000 0000000   0.0000 300.0000  1.91644752    14
CTC2_L_00673011-07
1 20622U 22694QX  26037.47799769  .00000000  00000+0  00000-0 0  9990
2 20622  50.0000 300.0000 0000000   0.0000 336.0000  1.91644752    14
CTC2_L_00673011-08
1 20623U 26974PL  26037.47799769  .00000000  00000+0  00000-0 0  9996
2 20623  50.0000 300.0000 0000000   0.0000  12.0000  1.91644752    16
CTC2_L_00673011-09
1 20624U 23135UG  26037.47799769  .00000000  00000+0  00000-0 0  9993
2 20624  50.0000 300.0000 0000000   0.0000  48.0000  1.91644752    16
CTC2_L_00673011-10
1 20625U 22762PO  26037.47799769  .00000000  00000+0  00000-0 0  9999
2 20625  50.0000 300.0000 0000000   0.0000  84.0000  1.91644752    17
CTC2_L_00673012-01
1 20626U 22369DG  26037.47799769  .00000000  00000+0  00000-0 0  9993
2 20626  50.0000 330.0000 0000000   0.0000 132.0000  1.91644752    15
CTC2_L_00673012-02
1 20627U 24997EX  26037.47799769  .00000000  00000+0  00000-0 0  9993
2 20627  50.0000 330.0000 0000000   0.0000 168.0000  1.91644752    15
CTC2_L_00673012-03
1 20628U 24601BR  26037.47799769  .00000000  00000+0  00000-0 0  9996
2 20628  50.0000 330.0000 0000000   0.0000 204.0000  1.91644752    17
CTC2_L_00673012-04
1 20629U 22019QN  26037.47799769  .00000000  00000+0  00000-0 0  9998
2 20629  50.0000 330.0000 0000000   0.0000 240.0000  1.91644752    18
CTC2_L_00673012-05
1 20630U 22288PB  26037.47799769  .00000000  00000+0  00000-0 0  9998
2 20630  50.0000 330.0000 0000000   0.0000 276.0000  1.91644752    19
CTC2_L_00673012-06
1 20631U 25293NN  26037.47799769  .00000000  00000+0  00000-0 0  9998
2 20631  50.0000 330.0000 0000000   0.0000 312.0000  1.91644752    11
CTC2_L_00673012-07
1 20632U 22277US  26037.47799769  .00000000  00000+0  00000-0 0  9998
2 20632  50.0000 330.0000 0000000   0.0000 348.0000  1.91644752    11
CTC2_L_00673012-08
1 20633U 23374UM  26037.47799769  .00000000  00000+0  00000-0 0  9998
2 20633  50.0000 330.0000 0000000   0.0000  24.0000  1.91644752    13
CTC2_L_00673012-09
1 20634U 23134V   26037.47799769  .00000000  00000+0  00000-0 0  9993
2 20634  50.0000 330.0000 0000000   0.0000  60.0000  1.91644752    14
CTC2_L_00673012-10
1 20635U 26569NZ  26037.47799769  .00000000  00000+0  00000-0 0  9999
2 20635  50.0000 330.0000 0000000   0.0000  96.0000  1.91644752    14
